STARLINK-2436           
1 48101U 21027K   26068.55873813  .00011226  00000+0  39040-3 0  9998
2 48101  53.1602 155.5561 0001556  86.9620 273.1558 15.30214640272647
TOMORROW-S2             
1 60485U 24149T   26068.75188364  .00008133  00000+0  27683-3 0  9990
2 60485  97.3857 150.0385 0001648 234.3331 125.7757 15.30674935 86869
